[{"OBJECT_NAME":"SHIYAN-4 (SY-4)","OBJECT_ID":"2011-068B","EPOCH":"2026-03-09T23:00:28.675872","MEAN_MOTION":14.31088676,"ECCENTRICITY":0.00240064,"INCLINATION":98.7036,"RA_OF_ASC_NODE":87.8563,"ARG_OF_PERICENTER":77.8488,"MEAN_ANOMALY":342.0096,"EPHEMERIS_TYPE":0,"CLASSIFICATION_TYPE":"U","NORAD_CAT_ID":37931,"ELEMENT_SET_NO":999,"REV_AT_EPOCH":74470,"BSTAR":0.00010117128,"MEAN_MOTION_DOT":2.23e-6,"MEAN_MOTION_DDOT":0},{"OBJECT_NAME":"DELTA 1 DEB","OBJECT_ID":"1978-026HJ","EPOCH":"2026-03-09T23:42:48.422880","MEAN_MOTION":14.39223222,"ECCENTRICITY":0.00652711,"INCLINATION":99.0728,"RA_OF_ASC_NODE":80.2949,"ARG_OF_PERICENTER":79.9827,"MEAN_ANOMALY":335.8047,"EPHEMERIS_TYPE":0,"CLASSIFICATION_TYPE":"U","NORAD_CAT_ID":18779,"ELEMENT_SET_NO":999,"REV_AT_EPOCH":97914,"BSTAR":0.0019596051,"MEAN_MOTION_DOT":6.185e-5,"MEAN_MOTION_DDOT":0}]
